NORAD_CAT_ID,OBJECT_NAME,OBJECT_TYPE,EPOCH,MEAN_MOTION,ECCENTRICITY,INCLINATION,RA_OF_ASC_NODE,ARG_OF_PERICENTER,MEAN_ANOMALY,BSTAR,MEAN_MOTION_DOT,MEAN_MOTION_DDOT,TLE_LINE0,TLE_LINE1,TLE_LINE2,SEMIMAJOR_AXIS,PERIOD,APOGEE,PERIGEE,DECAYED
53997.0,STARLINK-5130,PAYLOAD,2023-06-16 22:27:05,15.08850738,0.0001165,53.2173,358.9512,80.8294,279.283,0.00013141,1.805e-05,0.0,0 STARLINK-5130,1 53997U 22125AK  23167.93548247  .00001805  00000-0  13141-3 0  9993,2 53997  53.2173 358.9512 0001165  80.8294 279.2830 15.08850738 39191,6917.848,95.437,540.518,538.907,0.0
53997.0,STARLINK-5130,PAYLOAD,2023-06-17 12:45:35,15.08830737,0.000117,53.2169,356.2746,84.5914,275.5212,-8.0681e-05,-1.571e-05,0.0,0 STARLINK-5130,1 53997U 22125AK  23168.53166381 -.00001571  00000-0 -80681-4 0  9991,2 53997  53.2169 356.2746 0001170  84.5914 275.5212 15.08830737 39215,6917.909,95.438,540.583,538.964,0.0
53997.0,STARLINK-5130,PAYLOAD,2023-06-17 19:07:08,15.0882801,0.0001073,53.2175,355.0853,89.2016,270.9099,-0.00010381,-1.939e-05,0.0,0 STARLINK-5130,1 53997U 22125AK  23168.79662745 -.00001939  00000-0 -10381-3 0  9991,2 53997  53.2175 355.0853 0001073  89.2016 270.9099 15.08828010 39320,6917.917,95.438,540.524,539.04,0.0
53997.0,STARLINK-5130,PAYLOAD,2023-06-18 12:36:22,15.08834837,9.22e-05,53.2187,351.8129,89.5054,270.6044,2.4504e-06,-2.49e-06,0.0,0 STARLINK-5130,1 53997U 22125AK  23169.52526103 -.00000249  00000-0  24504-5 0  9996,2 53997  53.2187 351.8129 0000922  89.5054 270.6044 15.08834837 39365,6917.896,95.438,540.399,539.123,0.0
53997.0,STARLINK-5130,PAYLOAD,2023-06-18 18:57:54,15.08848108,0.000107,53.218,350.6252,88.237,271.8744,2.1521e-05,5.5e-07,0.0,0 STARLINK-5130,1 53997U 22125AK  23169.79021229  .00000055  00000-0  21521-4 0  9993,2 53997  53.2180 350.6252 0001070  88.2370 271.8744 15.08848108 39472,6917.856,95.437,540.461,538.98,0.0
53997.0,STARLINK-5130,PAYLOAD,2023-06-19 10:51:46,15.08831717,0.000128,53.2182,347.6516,85.924,274.1898,9.8329e-05,1.277e-05,0.0,0 STARLINK-5130,1 53997U 22125AK  23170.45262021  .00001277  00000-0  98329-4 0  9992,2 53997  53.2182 347.6516 0001280  85.9240 274.1898 15.08831717 39504,6917.906,95.438,540.656,538.885,0.0
53997.0,STARLINK-5130,PAYLOAD,2023-06-19 18:48:42,15.08833284,0.0001277,53.2181,346.1649,87.2483,272.8656,0.00010878,1.443e-05,0.0,0 STARLINK-5130,1 53997U 22125AK  23170.78382010  .00001443  00000-0  10878-3 0  9996,2 53997  53.2181 346.1649 0001277  87.2483 272.8656 15.08833284 39625,6917.901,95.438,540.649,538.883,0.0
53997.0,STARLINK-5130,PAYLOAD,2023-06-20 04:21:00,15.088373,0.0001101,53.2187,344.3825,88.2869,271.825,4.87e-05,4.87e-06,0.0,0 STARLINK-5130,1 53997U 22125AK  23171.18126056  .00000487  00000-0  48700-4 0  9990,2 53997  53.2187 344.3825 0001101  88.2869 271.8250 15.08837300 39613,6917.889,95.438,540.515,538.992,0.0
53997.0,STARLINK-5130,PAYLOAD,2023-06-20 17:04:06,15.08842501,0.0001043,53.2176,342.0028,88.165,271.9462,-1.6546e-05,-5.51e-06,0.0,0 STARLINK-5130,1 53997U 22125AK  23171.71118118 -.00000551  00000-0 -16546-4 0  9996,2 53997  53.2176 342.0028 0001043  88.1650 271.9462 15.08842501 39696,6917.873,95.437,540.459,539.016,0.0
53997.0,STARLINK-5130,PAYLOAD,2023-06-21 18:30:16,15.08840595,0.0001103,53.2179,337.2449,72.8237,287.2876,5.5279e-05,5.92e-06,0.0,0 STARLINK-5130,1 53997U 22125AK  23172.77102070  .00000592  00000-0  55279-4 0  9992,2 53997  53.2179 337.2449 0001103  72.8237 287.2876 15.08840595 39926,6917.879,95.438,540.507,538.981,0.0
53997.0,STARLINK-5130,PAYLOAD,2023-06-22 10:24:08,15.08839425,0.0001056,53.2177,334.2717,79.6414,280.4697,-6.5046e-05,-1.323e-05,0.0,0 STARLINK-5130,1 53997U 22125AK  23173.43342724 -.00001323  00000-0 -65046-4 0  9996,2 53997  53.2177 334.2717 0001056  79.6414 280.4697 15.08839425 40027,6917.882,95.438,540.478,539.017,0.0
53997.0,STARLINK-5130,PAYLOAD,2023-06-23 16:36:26,15.08849811,0.0001063,53.2176,328.6206,94.6504,265.4609,4.5563e-05,4.38e-06,0.0,0 STARLINK-5130,1 53997U 22125AK  23174.69197546  .00000438  00000-0  45563-4 0  9991,2 53997  53.2176 328.6206 0001063  94.6504 265.4609 15.08849811 40218,6917.85,95.437,540.451,538.98,0.0
53997.0,STARLINK-5130,PAYLOAD,2023-06-24 03:44:08,15.08841053,9.55e-05,53.2176,326.5396,95.2702,264.8399,3.1579e-05,2.15e-06,0.0,0 STARLINK-5130,1 53997U 22125AK  23175.15565968  .00000215  00000-0  31579-4 0  9995,2 53997  53.2176 326.5396 0000955  95.2702 264.8399 15.08841053 40287,6917.877,95.437,540.403,539.082,0.0
53997.0,STARLINK-5130,PAYLOAD,2023-06-25 16:18:01,15.08840435,0.0001028,53.2175,319.6996,98.9539,261.157,4.5787e-07,-2.8e-06,0.0,0 STARLINK-5130,1 53997U 22125AK  23176.67918214 -.00000280  00000-0  45787-6 0  9990,2 53997  53.2175 319.6996 0001028  98.9539 261.1570 15.08840435 40515,6917.879,95.438,540.455,539.033,0.0
53997.0,STARLINK-5130,PAYLOAD,2023-06-26 09:47:16,15.08827362,0.0001147,53.2178,316.4281,96.3011,263.8111,-2.4421e-05,-6.76e-06,0.0,0 STARLINK-5130,1 53997U 22125AK  23177.40783318 -.00000676  00000-0 -24421-4 0  9997,2 53997  53.2178 316.4281 0001147  96.3011 263.8111 15.08827362 40625,6917.919,95.438,540.578,538.991,0.0
53997.0,STARLINK-5130,PAYLOAD,2023-06-27 01:41:07,15.08839589,0.0001127,53.2188,313.4529,92.8622,267.2499,5.884e-07,-2.78e-06,0.0,0 STARLINK-5130,1 53997U 22125AK  23178.07022633 -.00000278  00000-0  58840-6 0  9998,2 53997  53.2188 313.4529 0001127  92.8622 267.2499 15.08839589 40727,6917.882,95.438,540.526,538.967,0.0
53997.0,STARLINK-5130,PAYLOAD,2023-06-27 09:38:03,15.08833189,0.0001086,53.2177,311.9687,103.0473,257.064,-3.6033e-05,-8.61e-06,0.0,0 STARLINK-5130,1 53997U 22125AK  23178.40143370 -.00000861  00000-0 -36033-4 0  9994,2 53997  53.2177 311.9687 0001086 103.0473 257.0640 15.08833189 40776,6917.901,95.438,540.517,539.015,0.0
53997.0,STARLINK-5130,PAYLOAD,2023-06-27 15:59:35,15.0883885,0.0001153,53.2189,310.7805,90.6022,269.5103,5.8107e-05,6.37e-06,0.0,0 STARLINK-5130,1 53997U 22125AK  23178.66638753  .00000637  00000-0  58107-4 0  9991,2 53997  53.2189 310.7805 0001153  90.6022 269.5103 15.08838850 40811,6917.884,95.438,540.547,538.951,0.0
53997.0,STARLINK-5130,PAYLOAD,2023-06-28 07:53:27,15.08833238,9.88e-05,53.2177,307.8059,98.797,261.3134,4.9661e-06,-2.09e-06,0.0,0 STARLINK-5130,1 53997U 22125AK  23179.32879510 -.00000209  00000-0  49661-5 0  9995,2 53997  53.2177 307.8059 0000988  98.7970 261.3134 15.08833238 40912,6917.901,95.438,540.45,539.083,0.0
53997.0,STARLINK-5130,PAYLOAD,2023-06-28 19:01:09,15.08844689,0.0001228,53.2181,305.725,105.3484,254.7644,7.5015e-05,9.06e-06,0.0,0 STARLINK-5130,1 53997U 22125AK  23179.79246620  .00000906  00000-0  75015-4 0  9990,2 53997  53.2181 305.7250 0001228 105.3484 254.7644 15.08844689 40981,6917.866,95.437,540.581,538.882,0.0
53997.0,STARLINK-5130,PAYLOAD,2023-06-29 17:16:33,15.08840968,0.0001019,53.2178,301.5617,89.4583,270.6526,1.9382e-05,2.1e-07,0.0,0 STARLINK-5130,1 53997U 22125AK  23180.71983156  .00000021  00000-0  19382-4 0  9999,2 53997  53.2178 301.5617 0001019  89.4583 270.6526 15.08840968 41127,6917.877,95.437,540.447,539.037,0.0
53997.0,STARLINK-5130,PAYLOAD,2023-07-01 01:04:15,15.08845045,0.0001034,53.2175,295.6149,82.4997,277.6112,-5.453e-05,-1.156e-05,0.0,0 STARLINK-5130,1 53997U 22125AK  23182.04462851 -.00001156  00000-0 -54530-4 0  9997,2 53997  53.2175 295.6149 0001034  82.4997 277.6112 15.08845045 41327,6917.865,95.437,540.445,539.015,0.0
53997.0,STARLINK-5130,PAYLOAD,2023-07-01 07:25:48,15.08833542,9.76e-05,53.2175,294.4258,91.5227,268.5877,3.2805e-06,-2.36e-06,0.0,0 STARLINK-5130,1 53997U 22125AK  23182.30959439 -.00000236  00000-0  32805-5 0  9998,2 53997  53.2175 294.4258 0000976  91.5227 268.5877 15.08833542 41366,6917.9,95.438,540.44,539.09,0.0
53997.0,STARLINK-5130,PAYLOAD,2023-07-02 10:27:22,15.08835015,8.48e-05,53.2166,289.3694,91.0077,269.1012,-1.2056e-05,-4.8e-06,0.0,0 STARLINK-5130,1 53997U 22125AK  23183.43567516 -.00000480  00000-0 -12056-4 0  9991,2 53997  53.2166 289.3694 0000848  91.0077 269.1012 15.08835015 41533,6917.896,95.438,540.347,539.174,0.0
53997.0,STARLINK-5130,PAYLOAD,2023-07-02 18:24:17,15.08846001,9.87e-05,53.2176,287.8834,83.5956,276.5149,2.1827e-07,-2.84e-06,0.0,0 STARLINK-5130,1 53997U 22125AK  23183.76686806 -.00000284  00000-0  21827-6 0  9990,2 53997  53.2176 287.8834 0000987  83.5956 276.5149 15.08846001 41584,6917.862,95.437,540.41,539.044,0.0
53997.0,STARLINK-5130,PAYLOAD,2023-07-04 11:44:19,15.08833361,0.0001013,53.2175,280.154,99.5831,260.5275,1.9925e-05,2.9e-07,0.0,0 STARLINK-5130,1 53997U 22125AK  23185.48911643  .00000029  00000-0  19925-4 0  9991,2 53997  53.2175 280.1540 0001013  99.5831 260.5275 15.08833361 41840,6917.901,95.438,540.466,539.065,0.0
53997.0,STARLINK-5130,PAYLOAD,2023-07-05 06:48:57,15.08827945,6.15e-05,53.2178,276.5833,105.9758,254.1302,-5.557e-05,-1.172e-05,0.0,0 STARLINK-5130,1 53997U 22125AK  23186.28400253 -.00001172  00000-0 -55570-4 0  9998,2 53997  53.2178 276.5833 0000615 105.9758 254.1302 15.08827945 41968,6917.917,95.438,540.208,539.357,0.0
53997.0,STARLINK-5130,PAYLOAD,2023-07-05 16:21:15,15.08843491,8.78e-05,53.2174,274.7991,91.699,268.4103,-2.3047e-05,-6.55e-06,0.0,0 STARLINK-5130,1 53997U 22125AK  23186.68143290 -.00000655  00000-0 -23047-4 0  9996,2 53997  53.2174 274.7991 0000878  91.6990 268.4103 15.08843491 42028,6917.87,95.437,540.342,539.127,0.0
53997.0,STARLINK-5130,PAYLOAD,2023-07-05 22:42:48,15.0883861,8.86e-05,53.2174,273.6096,90.8104,269.299,-6.9906e-05,-1.4e-05,0.0,0 STARLINK-5130,1 53997U 22125AK  23186.94639760 -.00001400  00000-0 -69906-4 0  9990,2 53997  53.2174 273.6096 0000886  90.8104 269.2990 15.08838610 42063,6917.885,95.438,540.363,539.137,0.0
53997.0,STARLINK-5130,PAYLOAD,2023-07-07 04:55:08,15.08832647,0.0001015,53.2176,267.9584,79.1181,280.9925,6.4573e-05,7.4e-06,0.0,0 STARLINK-5130,1 53997U 22125AK  23188.20496081  .00000740  00000-0  64573-4 0  9997,2 53997  53.2176 267.9584 0001015  79.1181 280.9925 15.08832647 42256,6917.903,95.438,540.47,539.066,0.0
